NORAD_CAT_ID,OBJECT_NAME,OBJECT_TYPE,EPOCH,MEAN_MOTION,ECCENTRICITY,INCLINATION,RA_OF_ASC_NODE,ARG_OF_PERICENTER,MEAN_ANOMALY,BSTAR,MEAN_MOTION_DOT,MEAN_MOTION_DDOT,TLE_LINE0,TLE_LINE1,TLE_LINE2,SEMIMAJOR_AXIS,PERIOD,APOGEE,PERIGEE,DECAYED
53595.0,STARLINK-4684,PAYLOAD,2023-02-27 00:14:29,15.08842996,0.0001261,53.2184,172.2062,183.2095,176.8889,-0.0019914,-0.00031843,0.0,0 STARLINK-4684,1 53595U 22104H   23058.01005822 -.00031843  00000-0 -19914-2 0  9999,2 53595  53.2184 172.2062 0001261 183.2095 176.8889 15.08842996 28267,6917.871,95.437,540.609,538.864,0.0
53595.0,STARLINK-4684,PAYLOAD,2023-02-27 17:43:43,15.08910552,0.0001318,53.2182,168.9322,100.802,259.3121,0.0033838,0.00054083,0.0,0 STARLINK-4684,1 53595U 22104H   23058.73869407  .00054083  00000-0  33838-2 0  9995,2 53595  53.2182 168.9322 0001318 100.8020 259.3121 15.08910552 28374,6917.665,95.433,540.441,538.618,0.0
53595.0,STARLINK-4684,PAYLOAD,2023-02-27 19:19:06,15.08894067,0.0001196,53.2163,168.6371,113.6703,246.4414,0.0040065,0.00064151,0.0,0 STARLINK-4684,1 53595U 22104H   23058.80493740  .00064151  00000-0  40065-2 0  9993,2 53595  53.2163 168.6371 0001196 113.6703 246.4414 15.08894067 28990,6917.715,95.434,540.407,538.753,0.0
53595.0,STARLINK-4684,PAYLOAD,2023-02-28 00:05:16,15.0883581,0.0001211,53.2175,167.7468,106.2752,253.8373,3.966e-05,3.43e-06,0.0,0 STARLINK-4684,1 53595U 22104H   23059.00366345  .00000343  00000-0  39660-4 0  9990,2 53595  53.2175 167.7468 0001211 106.2752 253.8373 15.08835810 28414,6917.893,95.438,540.596,538.92,0.0
53595.0,STARLINK-4684,PAYLOAD,2023-02-28 12:48:22,15.08820323,0.0001593,53.2164,165.3678,82.6719,277.4454,0.0006916,0.0001073,0.0,0 STARLINK-4684,1 53595U 22104H   23059.53359508  .00010730  00000-0  69160-3 0  9999,2 53595  53.2164 165.3678 0001593  82.6719 277.4454 15.08820323 29104,6917.941,95.439,540.908,538.704,0.0
53595.0,STARLINK-4684,PAYLOAD,2023-02-28 14:23:45,15.08824676,0.0001396,53.2162,165.0694,77.9996,282.1153,0.001117,0.00017526,0.0,0 STARLINK-4684,1 53595U 22104H   23059.59983510  .00017526  00000-0  11170-2 0  9998,2 53595  53.2162 165.0694 0001396  77.9996 282.1153 15.08824676 28509,6917.927,95.439,540.758,538.826,0.0
53595.0,STARLINK-4684,PAYLOAD,2023-02-28 19:09:55,15.0883609,0.0001445,53.216,164.1753,70.1784,289.9364,0.0016675,0.00026347,0.0,0 STARLINK-4684,1 53595U 22104H   23059.79855556  .00026347  00000-0  16675-2 0  9994,2 53595  53.2160 164.1753 0001445  70.1784 289.9364 15.08836090 29141,6917.892,95.438,540.757,538.758,0.0
53595.0,STARLINK-4684,PAYLOAD,2023-02-28 23:56:04,15.08804756,5.21e-05,53.2163,163.2852,74.9864,285.1186,-0.00069394,-0.00011304,0.0,0 STARLINK-4684,1 53595U 22104H   23059.99727988 -.00011304  00000-0 -69394-3 0  9999,2 53595  53.2163 163.2852 0000521  74.9864 285.1186 15.08804756 28568,6917.988,95.44,540.214,539.493,0.0
53595.0,STARLINK-4684,PAYLOAD,2023-03-01 11:03:48,15.08816914,0.0001179,53.2151,161.2041,65.5964,294.5151,0.0026863,0.00042697,0.0,0 STARLINK-4684,1 53595U 22104H   23060.46097454  .00042697  00000-0  26863-2 0  9991,2 53595  53.2151 161.2041 0001179  65.5964 294.5151 15.08816914 28633,6917.951,95.439,540.632,539.0,0.0
53595.0,STARLINK-4684,PAYLOAD,2023-03-01 15:49:57,15.08830736,0.0001206,53.2155,160.3121,66.2794,293.8324,0.0024086,0.00038243,0.0,0 STARLINK-4684,1 53595U 22104H   23060.65969668  .00038243  00000-0  24086-2 0  9994,2 53595  53.2155 160.3121 0001206  66.2794 293.8324 15.08830736 29279,6917.909,95.438,540.608,538.939,0.0
53595.0,STARLINK-4684,PAYLOAD,2023-03-01 23:46:53,15.088469,0.0001287,53.2156,158.8263,65.1031,295.0095,0.0020858,0.0003307,0.0,0 STARLINK-4684,1 53595U 22104H   23060.99089716  .00033070  00000-0  20858-2 0  9994,2 53595  53.2156 158.8263 0001287  65.1031 295.0095 15.08846900 28717,6917.859,95.437,540.615,538.834,0.0
53595.0,STARLINK-4684,PAYLOAD,2023-03-02 15:40:43,15.08892441,0.0001355,53.216,155.8523,64.8736,295.2396,0.0022361,0.0003553,0.0,0 STARLINK-4684,1 53595U 22104H   23061.65328402  .00035530  00000-0  22361-2 0  9990,2 53595  53.2160 155.8523 0001355  64.8736 295.2396 15.08892441 29428,6917.72,95.434,540.522,538.648,0.0
53595.0,STARLINK-4684,PAYLOAD,2023-03-03 05:59:11,15.08886926,0.0001436,53.2163,153.1761,68.9943,291.1203,0.001936,0.00030698,0.0,0 STARLINK-4684,1 53595U 22104H   23062.24943673  .00030698  00000-0  19360-2 0  9994,2 53595  53.2163 153.1761 0001436  68.9943 291.1203 15.08886926 28906,6917.737,95.435,540.595,538.609,0.0
53595.0,STARLINK-4684,PAYLOAD,2023-03-03 10:45:20,15.08887726,0.0001186,53.2166,152.284,77.0084,283.104,0.0020762,0.00032953,0.0,0 STARLINK-4684,1 53595U 22104H   23062.44815214  .00032953  00000-0  20762-2 0  9999,2 53595  53.2166 152.2840 0001186  77.0084 283.1040 15.08887726 29546,6917.735,95.435,540.42,538.779,0.0
53595.0,STARLINK-4684,PAYLOAD,2023-03-03 17:06:52,15.08907736,0.0001313,53.2165,151.094,71.4175,288.696,0.0024697,0.0003931,0.0,0 STARLINK-4684,1 53595U 22104H   23062.71310261  .00039310  00000-0  24697-2 0  9996,2 53595  53.2165 151.0940 0001313  71.4175 288.6960 15.08907736 29583,6917.673,95.433,540.447,538.63,0.0
53595.0,STARLINK-4684,PAYLOAD,2023-03-04 05:49:57,15.08852944,0.000163,53.2164,148.7152,112.6304,247.486,0.00070645,0.00010977,0.0,0 STARLINK-4684,1 53595U 22104H   23063.24302558  .00010977  00000-0  70645-3 0  9998,2 53595  53.2164 148.7152 0001630 112.6304 247.4860 15.08852944 29058,6917.841,95.437,540.833,538.578,0.0
53595.0,STARLINK-4684,PAYLOAD,2023-03-04 10:36:07,15.08839694,0.0001344,53.2171,147.8237,121.8097,238.3026,0.0016996,0.00026864,0.0,0 STARLINK-4684,1 53595U 22104H   23063.44174925  .00026864  00000-0  16996-2 0  9995,2 53595  53.2171 147.8237 0001344 121.8097 238.3026 15.08839694 29693,6917.881,95.438,540.676,538.817,0.0
53595.0,STARLINK-4684,PAYLOAD,2023-03-04 15:22:16,15.08847487,0.0001521,53.2167,146.9294,127.7942,232.3188,0.0017121,0.00027071,0.0,0 STARLINK-4684,1 53595U 22104H   23063.64046807  .00027071  00000-0  17121-2 0  9996,2 53595  53.2167 146.9294 0001521 127.7942 232.3188 15.08847487 29111,6917.858,95.437,540.775,538.67,0.0
53595.0,STARLINK-4684,PAYLOAD,2023-03-04 16:57:39,15.08858651,0.0001556,53.2167,146.6318,132.7652,227.3471,0.0020618,0.00032695,0.0,0 STARLINK-4684,1 53595U 22104H   23063.70670594  .00032695  00000-0  20618-2 0  9992,2 53595  53.2167 146.6318 0001556 132.7652 227.3471 15.08858651 29739,6917.823,95.436,540.765,538.612,0.0
53595.0,STARLINK-4684,PAYLOAD,2023-03-05 05:40:45,15.08836784,0.0001491,53.2176,144.2525,114.2382,245.8766,0.0013035,0.00020516,0.0,0 STARLINK-4684,1 53595U 22104H   23064.23663732  .00020516  00000-0  13035-2 0  9991,2 53595  53.2176 144.2525 0001491 114.2382 245.8766 15.08836784 29203,6917.89,95.438,540.787,538.724,0.0
53595.0,STARLINK-4684,PAYLOAD,2023-03-05 13:37:41,15.08853538,0.0001377,53.2183,142.7678,102.6485,257.4662,0.0022425,0.00035595,0.0,0 STARLINK-4684,1 53595U 22104H   23064.56783739  .00035595  00000-0  22425-2 0  9993,2 53595  53.2183 142.7678 0001377 102.6485 257.4662 15.08853538 29863,6917.839,95.437,540.657,538.751,0.0
53595.0,STARLINK-4684,PAYLOAD,2023-03-05 21:34:36,15.08856715,0.0001065,53.218,141.2792,77.6945,282.4166,0.0020983,0.0003328,0.0,0 STARLINK-4684,1 53595U 22104H   23064.89903831  .00033280  00000-0  20983-2 0  9992,2 53595  53.2180 141.2792 0001065  77.6945 282.4166 15.08856715 29910,6917.829,95.436,540.431,538.958,0.0
53595.0,STARLINK-4684,PAYLOAD,2023-03-06 05:31:32,15.08853029,9.69e-05,53.2168,139.7947,107.2158,252.894,0.0012605,0.00019837,0.0,0 STARLINK-4684,1 53595U 22104H   23065.23023674  .00019837  00000-0  12605-2 0  9993,2 53595  53.2168 139.7947 0000969 107.2158 252.8940 15.08853029 29352,6917.841,95.437,540.376,539.035,0.0
53595.0,STARLINK-4684,PAYLOAD,2023-03-06 10:17:41,15.08878843,0.0001036,53.2173,138.9019,107.8129,252.2976,0.0028433,0.00045302,0.0,0 STARLINK-4684,1 53595U 22104H   23065.42895301  .00045302  00000-0  28433-2 0  9990,2 53595  53.2173 138.9019 0001036 107.8129 252.2976 15.08878843 29386,6917.762,95.435,540.343,538.91,0.0
53595.0,STARLINK-4684,PAYLOAD,2023-03-06 21:25:22,15.08861758,8.2e-05,53.2183,136.8223,107.0202,253.088,-8.754e-06,-4.27e-06,0.0,0 STARLINK-4684,1 53595U 22104H   23065.89262547 -.00000427  00000-0 -87540-5 0  9999,2 53595  53.2183 136.8223 0000820 107.0202 253.0880 15.08861758 30062,6917.814,95.436,540.246,539.112,0.0
53595.0,STARLINK-4684,PAYLOAD,2023-03-07 05:22:19,15.08826784,0.0001179,53.2169,135.3329,87.9624,272.1503,-0.00059152,-9.686e-05,0.0,0 STARLINK-4684,1 53595U 22104H   23066.22383360 -.00009686  00000-0 -59152-3 0  9996,2 53595  53.2169 135.3329 0001179  87.9624 272.1503 15.08826784 29500,6917.921,95.438,540.601,538.97,0.0
53595.0,STARLINK-4684,PAYLOAD,2023-03-07 08:33:05,15.08835549,0.0001426,53.2172,134.7396,97.35,262.7654,0.0009397,0.00014697,0.0,0 STARLINK-4684,1 53595U 22104H   23066.35631522  .00014697  00000-0  93970-3 0  9998,2 53595  53.2172 134.7396 0001426  97.3500 262.7654 15.08835549 29527,6917.894,95.438,540.745,538.773,0.0
53595.0,STARLINK-4684,PAYLOAD,2023-03-07 14:54:38,15.0885926,0.0001579,53.2167,133.5501,90.4745,269.6428,0.0035222,0.00056245,0.0,0 STARLINK-4684,1 53595U 22104H   23066.62127720  .00056245  00000-0  35222-2 0  9998,2 53595  53.2167 133.5501 0001579  90.4745 269.6428 15.08859260 29565,6917.822,95.436,540.779,538.594,0.0
53595.0,STARLINK-4684,PAYLOAD,2023-03-07 21:16:11,15.08820899,0.0001641,53.2161,132.3599,99.2624,260.8554,0.0020539,0.00032534,0.0,0 STARLINK-4684,1 53595U 22104H   23066.88624305  .00032534  00000-0  20539-2 0  9997,2 53595  53.2161 132.3599 0001641  99.2624 260.8554 15.08820899 30219,6917.939,95.439,540.939,538.669,0.0
53595.0,STARLINK-4684,PAYLOAD,2023-03-08 03:37:44,15.08824065,0.0002024,53.2155,131.1735,98.2033,261.9189,0.002745,0.00043651,0.0,0 STARLINK-4684,1 53595U 22104H   23067.15120883  .00043651  00000-0  27450-2 0  9991,2 53595  53.2155 131.1735 0002024  98.2033 261.9189 15.08824065 29640,6917.929,95.439,541.194,538.394,0.0
